start=new Date('2023-06-15T00:00:00.000Z').valueOf();
sats=[{"TLE_LINE1":"1 51974U 22025U   23165.80861238  .00000574  00000-0  58562-4 0  9996","PERIOD":"95.644","DECAY_DATE":null,"GP_ID":"233947464","OBJECT_ID":"2022-025U","CENTER_NAME":"EARTH","RA_OF_ASC_NODE":"194.8133","SITE":"AFETR","TIME_SYSTEM":"UTC","OBJECT_NAME":"STARLINK-3672","PERIAPSIS":"548.958","CLASSIFICATION_TYPE":"U","ELEMENT_SET_NO":"999","INCLINATION":"53.0686","LAUNCH_DATE":"2022-03-09","OBJECT_TYPE":"PAYLOAD","REF_FRAME":"TEME","EPHEMERIS_TYPE":"0","RCS_SIZE":"LARGE","NORAD_CAT_ID":"51974","REV_AT_EPOCH":"7036","ARG_OF_PERICENTER":"89.8085","EPOCH":"2023-06-14T19:24:24.109632","COUNTRY_CODE":"US","MEAN_MOTION":"15.05581820","APOAPSIS":"550.486","FILE":"3933215","MEAN_ANOMALY":"270.3030","MEAN_MOTION_DDOT":"0.0000000000000","MEAN_MOTION_DOT":"0.00000574","SEMIMAJOR_AXIS":"6927.857","TLE_LINE2":"2 51974  53.0686 194.8133 0001103  89.8085 270.3030 15.05581820 70364","MEAN_ELEMENT_THEORY":"SGP4","BSTAR":"0.00005856200000","ECCENTRICITY":"0.00011030"},{"EPOCH":"2023-06-14T18:30:29.401632","ARG_OF_PERICENTER":"91.5806","APOAPSIS":"535.423","FILE":"3933215","MEAN_MOTION":"15.10479856","COUNTRY_CODE":"US","REV_AT_EPOCH":"7042","RCS_SIZE":"LARGE","NORAD_CAT_ID":"51975","MEAN_ELEMENT_THEORY":"SGP4","TLE_LINE2":"2 51975  53.0621 191.0526 0000992  91.5806 268.5299 15.10479856 70429","SEMIMAJOR_AXIS":"6912.873","MEAN_MOTION_DOT":"0.00000134","ECCENTRICITY":"0.00009920","BSTAR":"0.00002560100000","MEAN_MOTION_DDOT":"0.0000000000000","MEAN_ANOMALY":"268.5299","PERIOD":"95.334","TLE_LINE1":"1 51975U 22025V   23165.77117363  .00000134  00000-0  25601-4 0  9996","CENTER_NAME":"EARTH","GP_ID":"233948214","OBJECT_ID":"2022-025V","DECAY_DATE":null,"LAUNCH_DATE":"2022-03-09","OBJECT_TYPE":"PAYLOAD","INCLINATION":"53.0621","CLASSIFICATION_TYPE":"U","ELEMENT_SET_NO":"999","EPHEMERIS_TYPE":"0","REF_FRAME":"TEME","SITE":"AFETR","RA_OF_ASC_NODE":"191.0526","PERIAPSIS":"534.052","OBJECT_NAME":"STARLINK-3674","TIME_SYSTEM":"UTC"},{"CENTER_NAME":"EARTH","GP_ID":"233915336","OBJECT_ID":"2022-025W","DECAY_DATE":null,"PERIOD":"95.438","TLE_LINE1":"1 51976U 22025W   23165.12352080  .00000176  00000-0  29108-4 0  9995","EPHEMERIS_TYPE":"0","REF_FRAME":"TEME","OBJECT_TYPE":"PAYLOAD","LAUNCH_DATE":"2022-03-09","INCLINATION":"53.2152","ELEMENT_SET_NO":"999","CLASSIFICATION_TYPE":"U","PERIAPSIS":"539.057","OBJECT_NAME":"STARLINK-3663","TIME_SYSTEM":"UTC","RA_OF_ASC_NODE":"206.3563","SITE":"AFETR","FILE":"3932965","APOAPSIS":"540.437","MEAN_MOTION":"15.08839500","COUNTRY_CODE":"US","EPOCH":"2023-06-14T02:57:52.197120","ARG_OF_PERICENTER":"76.0115","REV_AT_EPOCH":"7016","NORAD_CAT_ID":"51976","RCS_SIZE":"LARGE","ECCENTRICITY":"0.00009980","BSTAR":"0.00002910800000","MEAN_ELEMENT_THEORY":"SGP4","TLE_LINE2":"2 51976  53.2152 206.3563 0000998  76.0115 284.0988 15.08839500 70161","SEMIMAJOR_AXIS":"6917.882","MEAN_MOTION_DOT":"0.00000176","MEAN_MOTION_DDOT":"0.0000000000000","MEAN_ANOMALY":"284.0988"},{"EPHEMERIS_TYPE":"0","REF_FRAME":"TEME","OBJECT_TYPE":"PAYLOAD","LAUNCH_DATE":"2022-03-09","INCLINATION":"53.2159","ELEMENT_SET_NO":"999","CLASSIFICATION_TYPE":"U","PERIAPSIS":"539.008","TIME_SYSTEM":"UTC","OBJECT_NAME":"STARLINK-3660","RA_OF_ASC_NODE":"183.3893","SITE":"AFETR","GP_ID":"233946713","OBJECT_ID":"2022-025X","CENTER_NAME":"EARTH","DECAY_DATE":null,"PERIOD":"95.438","TLE_LINE1":"1 51977U 22025X   23165.78408435  .00000324  00000-0  38459-4 0  9998","BSTAR":"0.00003845900000","ECCENTRICITY":"0.00010710","TLE_LINE2":"2 51977  53.2159 183.3893 0001071  88.6541 271.4574 15.08838870 70535","MEAN_ELEMENT_THEORY":"SGP4","MEAN_MOTION_DOT":"0.00000324","SEMIMAJOR_AXIS":"6917.884","MEAN_MOTION_DDOT":"0.0000000000000","MEAN_ANOMALY":"271.4574","MEAN_MOTION":"15.08838870","APOAPSIS":"540.490","FILE":"3933215","COUNTRY_CODE":"US","ARG_OF_PERICENTER":"88.6541","EPOCH":"2023-06-14T18:49:04.887840","REV_AT_EPOCH":"7053","NORAD_CAT_ID":"51977","RCS_SIZE":"LARGE"},{"ARG_OF_PERICENTER":"76.9034","EPOCH":"2023-06-14T20:11:12.759360","COUNTRY_CODE":"US","MEAN_MOTION":"15.08844828","APOAPSIS":"540.465","FILE":"3933215","NORAD_CAT_ID":"51978","RCS_SIZE":"LARGE","REV_AT_EPOCH":"7026","MEAN_MOTION_DOT":"0.00001339","SEMIMAJOR_AXIS":"6917.866","TLE_LINE2":"2 51978  53.2153 203.1481 0001062  76.9034 283.2077 15.08844828 70260","MEAN_ELEMENT_THEORY":"SGP4","BSTAR":"0.00010217000000","ECCENTRICITY":"0.00010620","MEAN_ANOMALY":"283.2077","MEAN_MOTION_DDOT":"0.0000000000000","TLE_LINE1":"1 51978U 22025Y   23165.84111990  .00001339  00000-0  10217-3 0  9991","PERIOD":"95.437","DECAY_DATE":null,"OBJECT_ID":"2022-025Y","GP_ID":"233947965","CENTER_NAME":"EARTH","CLASSIFICATION_TYPE":"U","ELEMENT_SET_NO":"999","LAUNCH_DATE":"2022-03-09","INCLINATION":"53.2153","OBJECT_TYPE":"PAYLOAD","REF_FRAME":"TEME","EPHEMERIS_TYPE":"0","RA_OF_ASC_NODE":"203.1481","SITE":"AFETR","TIME_SYSTEM":"UTC","OBJECT_NAME":"STARLINK-3666","PERIAPSIS":"538.996"},{"OBJECT_ID":"2022-025Z","GP_ID":"233915089","CENTER_NAME":"EARTH","DECAY_DATE":null,"PERIOD":"95.438","TLE_LINE1":"1 51979U 22025Z   23165.52368329  .00000615  00000-0  56709-4 0  9990","EPHEMERIS_TYPE":"0","REF_FRAME":"TEME","LAUNCH_DATE":"2022-03-09","INCLINATION":"53.2154","OBJECT_TYPE":"PAYLOAD","CLASSIFICATION_TYPE":"U","ELEMENT_SET_NO":"999","PERIAPSIS":"539.017","TIME_SYSTEM":"UTC","OBJECT_NAME":"STARLINK-3656","SITE":"AFETR","RA_OF_ASC_NODE":"204.5494","MEAN_MOTION":"15.08839859","APOAPSIS":"540.474","FILE":"3932965","COUNTRY_CODE":"US","ARG_OF_PERICENTER":"81.8029","EPOCH":"2023-06-14T12:34:06.236256","REV_AT_EPOCH":"7022","NORAD_CAT_ID":"51979","RCS_SIZE":"LARGE","BSTAR":"0.00005670900000","ECCENTRICITY":"0.00010530","TLE_LINE2":"2 51979  53.2154 204.5494 0001053  81.8029 278.3082 15.08839859 70225","MEAN_ELEMENT_THEORY":"SGP4","MEAN_MOTION_DOT":"0.00000615","SEMIMAJOR_AXIS":"6917.881","MEAN_MOTION_DDOT":"0.0000000000000","MEAN_ANOMALY":"278.3082"},{"EPOCH":"2023-06-14T19:59:13.662528","ARG_OF_PERICENTER":"86.2680","APOAPSIS":"540.426","FILE":"3933215","MEAN_MOTION":"15.08847823","COUNTRY_CODE":"US","REV_AT_EPOCH":"7026","RCS_SIZE":"LARGE","NORAD_CAT_ID":"51980","MEAN_ELEMENT_THEORY":"SGP4","TLE_LINE2":"2 51980  53.2151 203.1643 0001019  86.2680 273.8429 15.08847823 70268","SEMIMAJOR_AXIS":"6917.856","MEAN_MOTION_DOT":"0.00001700","ECCENTRICITY":"0.00010190","BSTAR":"0.00012483000000","MEAN_MOTION_DDOT":"0.0000000000000","MEAN_ANOMALY":"273.8429","PERIOD":"95.437","TLE_LINE1":"1 51980U 22025AA  23165.83279702  .00001700  00000-0  12483-3 0  9998","CENTER_NAME":"EARTH","GP_ID":"233946463","OBJECT_ID":"2022-025AA","DECAY_DATE":null,"LAUNCH_DATE":"2022-03-09","OBJECT_TYPE":"PAYLOAD","INCLINATION":"53.2151","ELEMENT_SET_NO":"999","CLASSIFICATION_TYPE":"U","EPHEMERIS_TYPE":"0","REF_FRAME":"TEME","SITE":"AFETR","RA_OF_ASC_NODE":"203.1643","PERIAPSIS":"539.017","OBJECT_NAME":"STARLINK-3649","TIME_SYSTEM":"UTC"},{"PERIOD":"95.437","TLE_LINE1":"1 51981U 22025AB  23165.11888170  .00000505  00000-0  49815-4 0  9997","GP_ID":"233914088","OBJECT_ID":"2022-025AB","CENTER_NAME":"EARTH","DECAY_DATE":null,"RA_OF_ASC_NODE":"206.3686","SITE":"AFETR","PERIAPSIS":"539.136","TIME_SYSTEM":"UTC","OBJECT_NAME":"STARLINK-3635","INCLINATION":"53.2149","LAUNCH_DATE":"2022-03-09","OBJECT_TYPE":"PAYLOAD","CLASSIFICATION_TYPE":"U","ELEMENT_SET_NO":"999","EPHEMERIS_TYPE":"0","REF_FRAME":"TEME","REV_AT_EPOCH":"7015","NORAD_CAT_ID":"51981","RCS_SIZE":"LARGE","ARG_OF_PERICENTER":"86.7340","EPOCH":"2023-06-14T02:51:11.378880","MEAN_MOTION":"15.08844038","APOAPSIS":"540.330","FILE":"3932965","COUNTRY_CODE":"US","MEAN_MOTION_DDOT":"0.0000000000000","MEAN_ANOMALY":"273.3751","TLE_LINE2":"2 51981  53.2149 206.3686 0000863  86.7340 273.3751 15.08844038 70158","MEAN_ELEMENT_THEORY":"SGP4","MEAN_MOTION_DOT":"0.00000505","SEMIMAJOR_AXIS":"6917.868","BSTAR":"0.00004981500000","ECCENTRICITY":"0.00008630"},{"TLE_LINE1":"1 51982U 22025AC  23165.82912495  .00000850  00000-0  71485-4 0  9995","PERIOD":"95.437","DECAY_DATE":null,"OBJECT_ID":"2022-025AC","GP_ID":"233947465","CENTER_NAME":"EARTH","RA_OF_ASC_NODE":"203.1787","SITE":"AFETR","TIME_SYSTEM":"UTC","OBJECT_NAME":"STARLINK-3650","PERIAPSIS":"539.040","ELEMENT_SET_NO":"999","CLASSIFICATION_TYPE":"U","LAUNCH_DATE":"2022-03-09","OBJECT_TYPE":"PAYLOAD","INCLINATION":"53.2155","REF_FRAME":"TEME","EPHEMERIS_TYPE":"0","NORAD_CAT_ID":"51982","RCS_SIZE":"LARGE","REV_AT_EPOCH":"7026","ARG_OF_PERICENTER":"85.1808","EPOCH":"2023-06-14T19:53:56.395680","COUNTRY_CODE":"US","MEAN_MOTION":"15.08841269","APOAPSIS":"540.443","FILE":"3933215","MEAN_ANOMALY":"274.9300","MEAN_MOTION_DDOT":"0.0000000000000","MEAN_MOTION_DOT":"0.00000850","SEMIMAJOR_AXIS":"6917.877","TLE_LINE2":"2 51982  53.2155 203.1787 0001014  85.1808 274.9300 15.08841269 70266","MEAN_ELEMENT_THEORY":"SGP4","BSTAR":"0.00007148500000","ECCENTRICITY":"0.00010140"},{"EPOCH":"2023-06-14T20:15:08.329824","ARG_OF_PERICENTER":"85.5109","APOAPSIS":"540.400","FILE":"3933215","MEAN_MOTION":"15.08838020","COUNTRY_CODE":"US","REV_AT_EPOCH":"7026","NORAD_CAT_ID":"51983","RCS_SIZE":"LARGE","MEAN_ELEMENT_THEORY":"SGP4","TLE_LINE2":"2 51983  53.2158 203.1155 0000937  85.5109 274.5990 15.08838020 70262","SEMIMAJOR_AXIS":"6917.886","MEAN_MOTION_DOT":"0.00000485","ECCENTRICITY":"0.00009370","BSTAR":"0.00004853000000","MEAN_MOTION_DDOT":"0.0000000000000","MEAN_ANOMALY":"274.5990","PERIOD":"95.438","TLE_LINE1":"1 51983U 22025AD  23165.84384641  .00000485  00000-0  48530-4 0  9993","CENTER_NAME":"EARTH","GP_ID":"233948215","OBJECT_ID":"2022-025AD","DECAY_DATE":null,"LAUNCH_DATE":"2022-03-09","OBJECT_TYPE":"PAYLOAD","INCLINATION":"53.2158","CLASSIFICATION_TYPE":"U","ELEMENT_SET_NO":"999","EPHEMERIS_TYPE":"0","REF_FRAME":"TEME","SITE":"AFETR","RA_OF_ASC_NODE":"203.1155","PERIAPSIS":"539.103","OBJECT_NAME":"STARLINK-3655","TIME_SYSTEM":"UTC"}];
